[ {"OBJECT_NAME": "GAOFEN-11 05", "NORAD_CAT_ID": 60249, "MEAN_MOTION": 15.23585048, "ECCENTRICITY": 0.0004347, "INCLINATION": 97.4015, "RA_OF_ASC_NODE": 183.7804, "ARG_OF_PERICENTER": 316.0589, "MEAN_ANOMALY": 44.0302, "BSTAR": 0.00013042000000000002, "EPOCH": "2026-04-14T14:33:42"}, {"OBJECT_NAME": "GAOFEN-11 01", "NORAD_CAT_ID": 43585, "MEAN_MOTION": 15.53481498, "ECCENTRICITY": 0.0003826, "INCLINATION": 97.1347, "RA_OF_ASC_NODE": 171.7624, "ARG_OF_PERICENTER": 181.1252, "MEAN_ANOMALY": 178.9994, "BSTAR": 0.00019567, "EPOCH": "2026-04-14T15:09:56"}, {"OBJECT_NAME": "GAOFEN-2", "NORAD_CAT_ID": 40118, "MEAN_MOTION": 14.80825194, "ECCENTRICITY": 0.0008799, "INCLINATION": 98.0161, "RA_OF_ASC_NODE": 168.8497, "ARG_OF_PERICENTER": 80.7749, "MEAN_ANOMALY": 279.4458, "BSTAR": 6.3385e-05, "EPOCH": "2026-04-14T14:14:56"}, {"OBJECT_NAME": "GAOFEN-11 02", "NORAD_CAT_ID": 46396, "MEAN_MOTION": 15.23566281, "ECCENTRICITY": 0.002032, "INCLINATION": 97.5038, "RA_OF_ASC_NODE": 230.593, "ARG_OF_PERICENTER": 166.2586, "MEAN_ANOMALY": 193.9208, "BSTAR": 0.00016188, "EPOCH": "2026-04-14T14:50:40"}, {"OBJECT_NAME": "GAOFEN-11 03", "NORAD_CAT_ID": 49492, "MEAN_MOTION": 15.23754835, "ECCENTRICITY": 0.0004359, "INCLINATION": 97.216, "RA_OF_ASC_NODE": 151.197, "ARG_OF_PERICENTER": 280.4883, "MEAN_ANOMALY": 79.5863, "BSTAR": 0.00012038000000000001, "EPOCH": "2026-04-14T14:39:55"}, {"OBJECT_NAME": "GAOFEN-12 01", "NORAD_CAT_ID": 44819, "MEAN_MOTION": 14.8040649, "ECCENTRICITY": 8.03e-05, "INCLINATION": 97.8127, "RA_OF_ASC_NODE": 112.6685, "ARG_OF_PERICENTER": 123.5994, "MEAN_ANOMALY": 236.5295, "BSTAR": 3.6058000000000006e-05, "EPOCH": "2026-04-14T14:43:26"}, {"OBJECT_NAME": "GAOFEN-12 03", "NORAD_CAT_ID": 52912, "MEAN_MOTION": 14.7993072, "ECCENTRICITY": 0.0001814, "INCLINATION": 97.8361, "RA_OF_ASC_NODE": 354.0199, "ARG_OF_PERICENTER": 51.7334, "MEAN_ANOMALY": 308.4041, "BSTAR": 2.98e-05, "EPOCH": "2026-04-14T13:37:18"}, {"OBJECT_NAME": "GAOFEN-12 02", "NORAD_CAT_ID": 48079, "MEAN_MOTION": 14.80244775, "ECCENTRICITY": 0.0006304, "INCLINATION": 97.9928, "RA_OF_ASC_NODE": 103.0627, "ARG_OF_PERICENTER": 82.9402, "MEAN_ANOMALY": 277.2527, "BSTAR": 3.7717000000000005e-05, "EPOCH": "2026-04-14T14:49:40"}, {"OBJECT_NAME": "GAOFEN-6", "NORAD_CAT_ID": 43484, "MEAN_MOTION": 14.76557063, "ECCENTRICITY": 0.001277, "INCLINATION": 97.7811, "RA_OF_ASC_NODE": 169.5763, "ARG_OF_PERICENTER": 27.5987, "MEAN_ANOMALY": 332.5899, "BSTAR": 5.7925000000000005e-05, "EPOCH": "2026-04-14T13:48:38"}, {"OBJECT_NAME": "GAOFEN-3 02", "NORAD_CAT_ID": 49495, "MEAN_MOTION": 14.42215329, "ECCENTRICITY": 0.000279, "INCLINATION": 98.4119, "RA_OF_ASC_NODE": 113.5631, "ARG_OF_PERICENTER": 153.354, "MEAN_ANOMALY": 206.7794, "BSTAR": 4.0112e-05, "EPOCH": "2026-04-14T13:37:55"}, {"OBJECT_NAME": "GAOFEN-7", "NORAD_CAT_ID": 44703, "MEAN_MOTION": 15.2136973, "ECCENTRICITY": 0.0014651, "INCLINATION": 97.2482, "RA_OF_ASC_NODE": 168.4394, "ARG_OF_PERICENTER": 253.4213, "MEAN_ANOMALY": 106.5414, "BSTAR": 0.00010288, "EPOCH": "2026-04-14T14:23:29"}, {"OBJECT_NAME": "GAOFEN-1", "NORAD_CAT_ID": 39150, "MEAN_MOTION": 14.76543028, "ECCENTRICITY": 0.0018565, "INCLINATION": 97.9126, "RA_OF_ASC_NODE": 177.9828, "ARG_OF_PERICENTER": 109.1878, "MEAN_ANOMALY": 251.1344, "BSTAR": 9.387600000000001e-05, "EPOCH": "2026-04-14T15:11:11"}, {"OBJECT_NAME": "GAOFEN-8", "NORAD_CAT_ID": 40701, "MEAN_MOTION": 15.43743443, "ECCENTRICITY": 0.0010172, "INCLINATION": 97.6935, "RA_OF_ASC_NODE": 294.2662, "ARG_OF_PERICENTER": 68.3482, "MEAN_ANOMALY": 291.8847, "BSTAR": 0.00027122, "EPOCH": "2026-04-14T14:35:08"}, {"OBJECT_NAME": "GAOFEN-3", "NORAD_CAT_ID": 41727, "MEAN_MOTION": 14.42224788, "ECCENTRICITY": 0.0001431, "INCLINATION": 98.4041, "RA_OF_ASC_NODE": 113.3437, "ARG_OF_PERICENTER": 65.6705, "MEAN_ANOMALY": 294.4635, "BSTAR": 2.3793e-05, "EPOCH": "2026-04-14T14:28:34"}, {"OBJECT_NAME": "GAOFEN-3 03", "NORAD_CAT_ID": 52200, "MEAN_MOTION": 14.4221524, "ECCENTRICITY": 0.0001543, "INCLINATION": 98.4093, "RA_OF_ASC_NODE": 114.1072, "ARG_OF_PERICENTER": 69.7499, "MEAN_ANOMALY": 290.3856, "BSTAR": 2.8121000000000004e-05, "EPOCH": "2026-04-14T14:38:33"}, {"OBJECT_NAME": "JILIN-1 GAOFEN 3E", "NORAD_CAT_ID": 46457, "MEAN_MOTION": 15.5725559, "ECCENTRICITY": 0.0012619, "INCLINATION": 97.235, "RA_OF_ASC_NODE": 156.0321, "ARG_OF_PERICENTER": 46.6483, "MEAN_ANOMALY": 313.5822, "BSTAR": 0.00035883999999999997, "EPOCH": "2026-04-14T14:18:52"}, {"OBJECT_NAME": "JILIN-1 GAOFEN 3D27", "NORAD_CAT_ID": 52444, "MEAN_MOTION": 15.64110528, "ECCENTRICITY": 0.0004841, "INCLINATION": 97.5647, "RA_OF_ASC_NODE": 213.4091, "ARG_OF_PERICENTER": 252.866, "MEAN_ANOMALY": 107.2069, "BSTAR": 0.00046213, "EPOCH": "2026-04-14T13:43:30"}, {"OBJECT_NAME": "JILIN-1 GAOFEN 03D14", "NORAD_CAT_ID": 51831, "MEAN_MOTION": 16.09073571, "ECCENTRICITY": 0.0006248, "INCLINATION": 97.3555, "RA_OF_ASC_NODE": 200.7761, "ARG_OF_PERICENTER": 262.4574, "MEAN_ANOMALY": 97.5999, "BSTAR": 0.0008262300000000001, "EPOCH": "2026-04-14T10:54:41"}, {"OBJECT_NAME": "JILIN-1 GAOFEN 3F", "NORAD_CAT_ID": 46458, "MEAN_MOTION": 15.55358422, "ECCENTRICITY": 0.0013685, "INCLINATION": 97.2305, "RA_OF_ASC_NODE": 153.622, "ARG_OF_PERICENTER": 33.8771, "MEAN_ANOMALY": 326.3355, "BSTAR": 0.00034736, "EPOCH": "2026-04-14T14:14:58"}, {"OBJECT_NAME": "BEIDOU-3 IGSO-3 (C40)", "NORAD_CAT_ID": 44709, "MEAN_MOTION": 1.00256571, "ECCENTRICITY": 0.0041718, "INCLINATION": 54.913, "RA_OF_ASC_NODE": 281.589, "ARG_OF_PERICENTER": 188.5844, "MEAN_ANOMALY": 171.2957, "BSTAR": 0.0, "EPOCH": "2026-04-13T21:27:11"}, {"OBJECT_NAME": "BEIDOU-3 IGSO-2 (C39)", "NORAD_CAT_ID": 44337, "MEAN_MOTION": 1.0028693, "ECCENTRICITY": 0.0039506, "INCLINATION": 55.2341, "RA_OF_ASC_NODE": 159.4271, "ARG_OF_PERICENTER": 214.5136, "MEAN_ANOMALY": 321.755, "BSTAR": 0.0, "EPOCH": "2026-04-14T00:57:47"}, {"OBJECT_NAME": "BEIDOU-3 IGSO-1 (C38)", "NORAD_CAT_ID": 44204, "MEAN_MOTION": 1.00258713, "ECCENTRICITY": 0.0024553, "INCLINATION": 58.6107, "RA_OF_ASC_NODE": 38.3063, "ARG_OF_PERICENTER": 235.7041, "MEAN_ANOMALY": 259.1233, "BSTAR": 0.0, "EPOCH": "2026-04-14T14:11:36"}]