GAOFEN-1
1 39150U 13018A   26104.63276963  .00000605  00000+0  93876-4 0  9993
2 39150  97.9126 177.9828 0018565 109.1878 251.1344 14.76543028698862
GAOFEN-2
1 40118U 14049A   26104.59370925  .00000436  00000+0  63385-4 0  9996
2 40118  98.0161 168.8497 0008799  80.7749 279.4458 14.80825194629820
GAOFEN-8
1 40701U 15030A   26104.60773928  .00012187  00000+0  27122-3 0  9991
2 40701  97.6935 294.2662 0010172  68.3482 291.8847 15.43743443601639
GAOFEN-3
1 41727U 16049A   26104.60317272  .00000035  00000+0  23793-4 0  9997
2 41727  98.4041 113.3437 0001431  65.6705 294.4635 14.42224788509480
GAOFEN-6
1 43484U 18048A   26104.57544375  .00000355  00000+0  57925-4 0  9991
2 43484  97.7811 169.5763 0012770  27.5987 332.5899 14.76557063424003
GAOFEN-11 01
1 43585U 18063A   26104.63189853  .00012324  00000+0  19567-3 0  9991
2 43585  97.1347 171.7624 0003826 181.1252 178.9994 15.53481498430478
BEIDOU-3 IGSO-1
1 44204U 19023A   26104.59139647 -.00000217  00000+0  00000+0 0  9995
2 44204  58.6107  38.3063 0024553 235.7041 259.1233  1.00258713  6577
BEIDOU-3 IGSO-2
1 44337U 19035A   26104.04013546 -.00000096  00000+0  00000+0 0  9999
2 44337  55.2341 159.4271 0039506 214.5136 321.7550  1.00286930 25028
GAOFEN-7
1 44703U 19072A   26104.59964394  .00002244  00000+0  10288-3 0  9992
2 44703  97.2482 168.4394 0014651 253.4213 106.5414 15.21369730357973
BEIDOU-3 IGSO-3
1 44709U 19073A   26103.89388834 -.00000168  00000+0  00000+0 0  9991
2 44709  54.9130 281.5890 0041718 188.5844 171.2957  1.00256571 23813
GAOFEN-12 01
1 44819U 19082A   26104.61350428  .00000225  00000+0  36058-4 0  9992
2 44819  97.8127 112.6685 0000803 123.5994 236.5295 14.80406490344688
GAOFEN-11 02
1 46396U 20064A   26104.61852652  .00003818  00000+0  16188-3 0  9994
2 46396  97.5038 230.5930 0020320 166.2586 193.9208 15.23566281311854
JILIN-1 GAOFEN 3E
1 46457U 20065D   26104.59644104  .00026177  00000+0  35884-3 0  9998
2 46457  97.2350 156.0321 0012619  46.6483 313.5822 15.57255590309844
JILIN-1 GAOFEN 3F
1 46458U 20065E   26104.59373720  .00023624  00000+0  34736-3 0  9991
2 46458  97.2305 153.6220 0013685  33.8771 326.3355 15.55358422309803
GAOFEN-12 02
1 48079U 21026A   26104.61782833  .00000234  00000+0  37717-4 0  9997
2 48079  97.9928 103.0627 0006304  82.9402 277.2527 14.80244775272354
GAOFEN-11 03
1 49492U 21107A   26104.61105509  .00002827  00000+0  12038-3 0  9994
2 49492  97.2160 151.1970 0004359 280.4883  79.5863 15.23754835244958
GAOFEN-3 02
1 49495U 21109A   26104.56800701  .00000089  00000+0  40112-4 0  9992
2 49495  98.4119 113.5631 0002790 153.3540 206.7794 14.42215329231143
JILIN-1 GAOFEN 03D14
1 51831U 22019H   26104.45464267  .00720895  27947-3  82623-3 0  9990
2 51831  97.3555 200.7761 0006248 262.4574  97.5999 16.09073571230166
GAOFEN-3 03
1 52200U 22035A   26104.61011176  .00000049  00000+0  28121-4 0  9997
2 52200  98.4093 114.1072 0001543  69.7499 290.3856 14.42215240211683
JILIN-1 GAOFEN 3D27
1 52444U 22048B   26104.57188521  .00043810  00000+0  46213-3 0  9999
2 52444  97.5647 213.4091 0004841 252.8660 107.2069 15.64110528219500
GAOFEN-12 03
1 52912U 22069A   26104.56757990  .00000174  00000+0  29800-4 0  9993
2 52912  97.8361 354.0199 0001814  51.7334 308.4041 14.79930720205204
GAOFEN-11 05
1 60249U 24130A   26104.60674456  .00003050  00000+0  13042-3 0  9992
2 60249  97.4015 183.7804 0004347 316.0589  44.0302 15.23585048 75781
